{
  "norad_id": 53988,
  "name": "STARLINK-5113",
  "history": [
    {
      "epoch": "2026-03-28T09:17:59.835840",
      "apogee_km": 540.6900326630494,
      "perigee_km": 538.7681111109578,
      "latitude_deg": -29.63876345576082,
      "longitude_deg": -24.0001823999919,
      "semi_major_axis_km": 6917.866071887003,
      "eccentricity": 0.00013891,
      "inclination_deg": 53.2163,
      "raan_deg": 130.2985,
      "arg_perigee_deg": 90.0846,
      "mean_anomaly_deg": 270.0305,
      "mean_motion_rev_day": 15.08844684
    }
  ]
}