{"fetched_at":"2026-03-29T02:12:04Z","count":15717,"tles":[{"name":"STARLINK-5113","line1":"1 53988U 22125AA  26087.38749810  .00000406  00000+0  43574-4 0  9994","line2":"2 53988  53.2163 130.2985 0001389  90.0846 270.0305 15.08844684192277","category":"Starlink"}]}